{
  "type": "FeatureCollection",
  "features": [
    {
      "type": "Feature",
      "properties": {
        "norad_id": 52912,
        "name": "GAOFEN-12 03",
        "group": "resource",
        "lat": -46.25268365576247,
        "lon": -112.58240541156886,
        "alt_km": 637.5992372362825,
        "timestamp": "2025-12-17T21:39:45.366482+00:00",
        "meta_object_name": "GAOFEN-12 03",
        "meta_object_id": "2022-069A",
        "meta_epoch": "2025-12-17T15:22:54.161760",
        "meta_mean_motion": 14.79619329,
        "meta_eccentricity": 0.00020782,
        "meta_inclination": 97.8486,
        "meta_ra_of_asc_node": 238.8764,
        "meta_arg_of_pericenter": 55.3008,
        "meta_mean_anomaly": 304.84,
        "meta_ephemeris_type": 0,
        "meta_classification_type": "U",
        "meta_norad_cat_id": 52912,
        "meta_element_set_no": 999,
        "meta_rev_at_epoch": 18776,
        "meta_bstar": 8.5321309e-05,
        "meta_mean_motion_dot": 5.89e-06,
        "meta_mean_motion_ddot": 0,
        "tle_line1": "1 52912U 22069A   25351.64090465  .00000589  00000+0  85321-4 0  9992",
        "tle_line2": "2 52912  97.8486 238.8764 0002078  55.3008 304.8400 14.79619329187768"
      },
      "geometry": {
        "type": "Point",
        "coordinates": [
          -112.58240541156886,
          -46.25268365576247
        ]
      }
    },
    {
      "type": "Feature",
      "properties": {
        "norad_id": 54754,
        "name": "SWOT",
        "group": "resource",
        "lat": -71.74939913690241,
        "lon": 141.8225648948317,
        "alt_km": 900.5899960929437,
        "timestamp": "2025-12-17T21:39:45.366491+00:00",
        "meta_object_name": "SWOT",
        "meta_object_id": "2022-173A",
        "meta_epoch": "2025-12-17T13:34:54.585984",
        "meta_mean_motion": 14.00167612,
        "meta_eccentricity": 3.685e-05,
        "meta_inclination": 77.6107,
        "meta_ra_of_asc_node": 280.4749,
        "meta_arg_of_pericenter": 99.6214,
        "meta_mean_anomaly": 260.4979,
        "meta_ephemeris_type": 0,
        "meta_classification_type": "U",
        "meta_norad_cat_id": 54754,
        "meta_element_set_no": 999,
        "meta_rev_at_epoch": 15373,
        "meta_bstar": 6.1360205e-05,
        "meta_mean_motion_dot": 8.8e-07,
        "meta_mean_motion_ddot": 0,
        "tle_line1": "1 54754U 22173A   25351.56590956  .00000088  00000+0  61360-4 0  9996",
        "tle_line2": "2 54754  77.6107 280.4749 0000368  99.6214 260.4979 14.00167612153731"
      },
      "geometry": {
        "type": "Point",
        "coordinates": [
          141.8225648948317,
          -71.74939913690241
        ]
      }
    },
    {
      "type": "Feature",
      "properties": {
        "norad_id": 57654,
        "name": "GAOFEN-12 04",
        "group": "resource",
        "lat": 54.50451782724713,
        "lon": 98.82680675177191,
        "alt_km": 624.5135416428975,
        "timestamp": "2025-12-17T21:39:45.366500+00:00",
        "meta_object_name": "GAOFEN-12 04",
        "meta_object_id": "2023-123A",
        "meta_epoch": "2025-12-17T16:13:57.178272",
        "meta_mean_motion": 14.79714327,
        "meta_eccentricity": 0.00012542,
        "meta_inclination": 97.9125,
        "meta_ra_of_asc_node": 267.3586,
        "meta_arg_of_pericenter": 75.0567,
        "meta_mean_anomaly": 285.0783,
        "meta_ephemeris_type": 0,
        "meta_classification_type": "U",
        "meta_norad_cat_id": 57654,
        "meta_element_set_no": 999,
        "meta_rev_at_epoch": 12578,
        "meta_bstar": 0.00015217545,
        "meta_mean_motion_dot": 1.092e-05,
        "meta_mean_motion_ddot": 0,
        "tle_line1": "1 57654U 23123A   25351.67635623  .00001092  00000+0  15218-3 0  9993",
        "tle_line2": "2 57654  97.9125 267.3586 0001254  75.0567 285.0783 14.79714327125782"
      },
      "geometry": {
        "type": "Point",
        "coordinates": [
          98.82680675177191,
          54.50451782724713
        ]
      }
    },
    {
      "type": "Feature",
      "properties": {
        "norad_id": 59065,
        "name": "PARS 1",
        "group": "resource",
        "lat": -38.992143152047085,
        "lon": 136.85326143408474,
        "alt_km": 457.4319253619824,
        "timestamp": "2025-12-17T21:39:45.366509+00:00",
        "meta_object_name": "PARS 1",
        "meta_object_id": "2024-039Q",
        "meta_epoch": "2025-12-17T14:28:52.222080",
        "meta_mean_motion": 15.4108396,
        "meta_eccentricity": 0.00122672,
        "meta_inclination": 97.4632,
        "meta_ra_of_asc_node": 322.6397,
        "meta_arg_of_pericenter": 57.6454,
        "meta_mean_anomaly": 302.5979,
        "meta_ephemeris_type": 0,
        "meta_classification_type": "U",
        "meta_norad_cat_id": 59065,
        "meta_element_set_no": 999,
        "meta_rev_at_epoch": 10063,
        "meta_bstar": 0.00024199091,
        "meta_mean_motion_dot": 9.945e-05,
        "meta_mean_motion_ddot": 0,
        "tle_line1": "1 59065U 24039Q   25351.60338220  .00009945  00000+0  24199-3 0  9997",
        "tle_line2": "2 59065  97.4632 322.6397 0012267  57.6454 302.5979 15.41083960100631"
      },
      "geometry": {
        "type": "Point",
        "coordinates": [
          136.85326143408474,
          -38.992143152047085
        ]
      }
    },
    {
      "type": "Feature",
      "properties": {
        "norad_id": 59371,
        "name": "RESURS-P 4",
        "group": "resource",
        "lat": -15.52459230239408,
        "lon": 116.09867548589948,
        "alt_km": 474.95891649773876,
        "timestamp": "2025-12-17T21:39:45.366518+00:00",
        "meta_object_name": "RESURS-P 4",
        "meta_object_id": "2024-061A",
        "meta_epoch": "2025-12-17T14:32:31.219296",
        "meta_mean_motion": 15.32124012,
        "meta_eccentricity": 0.00011646,
        "meta_inclination": 97.2548,
        "meta_ra_of_asc_node": 297.836,
        "meta_arg_of_pericenter": 57.2685,
        "meta_mean_anomaly": 302.8669,
        "meta_ephemeris_type": 0,
        "meta_classification_type": "U",
        "meta_norad_cat_id": 59371,
        "meta_element_set_no": 999,
        "meta_rev_at_epoch": 9595,
        "meta_bstar": 0.00011076894,
        "meta_mean_motion_dot": 3.359e-05,
        "meta_mean_motion_ddot": 0,
        "tle_line1": "1 59371U 24061A   25351.60591689  .00003359  00000+0  11077-3 0  9996",
        "tle_line2": "2 59371  97.2548 297.8360 0001164  57.2685 302.8669 15.32124012 95955"
      },
      "geometry": {
        "type": "Point",
        "coordinates": [
          116.09867548589948,
          -15.52459230239408
        ]
      }
    },
    {
      "type": "Feature",
      "properties": {
        "norad_id": 59625,
        "name": "LEGION 1",
        "group": "resource",
        "lat": 48.214477795609845,
        "lon": -105.00027784567763,
        "alt_km": 514.5323256765305,
        "timestamp": "2025-12-17T21:39:45.366527+00:00",
        "meta_object_name": "LEGION 1",
        "meta_object_id": "2024-081A",
        "meta_epoch": "2025-12-17T11:35:04.618176",
        "meta_mean_motion": 15.16527204,
        "meta_eccentricity": 0.00037255,
        "meta_inclination": 97.5215,
        "meta_ra_of_asc_node": 66.081,
        "meta_arg_of_pericenter": 296.3296,
        "meta_mean_anomaly": 63.7554,
        "meta_ephemeris_type": 0,
        "meta_classification_type": "U",
        "meta_norad_cat_id": 59625,
        "meta_element_set_no": 999,
        "meta_rev_at_epoch": 8999,
        "meta_bstar": 0.00021953602,
        "meta_mean_motion_dot": 4.213e-05,
        "meta_mean_motion_ddot": 0,
        "tle_line1": "1 59625U 24081A   25351.48269234  .00004213  00000+0  21954-3 0  9999",
        "tle_line2": "2 59625  97.5215  66.0810 0003725 296.3296  63.7554 15.16527204 89991"
      },
      "geometry": {
        "type": "Point",
        "coordinates": [
          -105.00027784567763,
          48.214477795609845
        ]
      }
    },
    {
      "type": "Feature",
      "properties": {
        "norad_id": 59626,
        "name": "LEGION 2",
        "group": "resource",
        "lat": -48.323192643103624,
        "lon": 75.12033544093902,
        "alt_km": 520.2055347764426,
        "timestamp": "2025-12-17T21:39:45.366536+00:00",
        "meta_object_name": "LEGION 2",
        "meta_object_id": "2024-081B",
        "meta_epoch": "2025-12-17T13:57:35.715168",
        "meta_mean_motion": 15.16539901,
        "meta_eccentricity": 0.0005623,
        "meta_inclination": 97.5218,
        "meta_ra_of_asc_node": 66.2666,
        "meta_arg_of_pericenter": 272.6912,
        "meta_mean_anomaly": 87.3677,
        "meta_ephemeris_type": 0,
        "meta_classification_type": "U",
        "meta_norad_cat_id": 59626,
        "meta_element_set_no": 999,
        "meta_rev_at_epoch": 9001,
        "meta_bstar": 0.00019932134,
        "meta_mean_motion_dot": 3.821e-05,
        "meta_mean_motion_ddot": 0,
        "tle_line1": "1 59626U 24081B   25351.58166337  .00003821  00000+0  19932-3 0  9998",
        "tle_line2": "2 59626  97.5218  66.2666 0005623 272.6912  87.3677 15.16539901 90017"
      },
      "geometry": {
        "type": "Point",
        "coordinates": [
          75.12033544093902,
          -48.323192643103624
        ]
      }
    }
  ]
}